{
    "links": {
        "self": "http://www.neowsapp.com/rest/v1/neo/3780670?api_key=iIulBulltgU6a56xZRHN4H3l9WmuAYTsLGpBGhQ2"
    },
    "id": "3780670",
    "neo_reference_id": "3780670",
    "name": "(2017 PO26)",
    "designation": "2017 PO26",
    "nasa_jpl_url": "http://ssd.jpl.nasa.gov/sbdb.cgi?sstr=3780670",
    "absolute_magnitude_h": 23.2,
    "estimated_diameter": {
        "kilometers": {
            "estimated_diameter_min": 0.0608912622,
            "estimated_diameter_max": 0.1361570015
        },
        "meters": {
            "estimated_diameter_min": 60.8912622106,
            "estimated_diameter_max": 136.1570015386
        },
        "miles": {
            "estimated_diameter_min": 0.0378360645,
            "estimated_diameter_max": 0.0846040122
        },
        "feet": {
            "estimated_diameter_min": 199.7744887109,
            "estimated_diameter_max": 446.7093369279
        }
    },
    "is_potentially_hazardous_asteroid": false,
    "close_approach_data": [
        {
            "close_approach_date": "2017-08-01",
            "close_approach_date_full": "2017-Aug-01 14:21",
            "epoch_date_close_approach": 1501597260000,
            "relative_velocity": {
                "kilometers_per_second": "9.3053478605",
                "kilometers_per_hour": "33499.252297898",
                "miles_per_hour": "20815.1326292134"
            },
            "miss_distance": {
                "astronomical": "0.1151180967",
                "lunar": "44.7809396163",
                "kilometers": "17221422.064774029",
                "miles": "10700895.4639344402"
            },
            "orbiting_body": "Earth"
        }
    ],
    "orbital_data": {
        "orbit_id": "2",
        "orbit_determination_date": "2017-08-21 06:18:08",
        "first_observation_date": "2017-08-15",
        "last_observation_date": "2017-08-20",
        "data_arc_in_days": 5,
        "observations_used": 17,
        "orbit_uncertainty": "8",
        "minimum_orbit_intersection": ".101292",
        "jupiter_tisserand_invariant": "3.344",
        "epoch_osculation": "2457981.5",
        "eccentricity": ".5270761639728214",
        "semi_major_axis": "2.336683312497066",
        "inclination": "11.27042153006011",
        "ascending_node_longitude": "133.7423354975185",
        "orbital_period": "1304.662598602351",
        "perihelion_distance": "1.105073235726807",
        "perihelion_argument": "160.6518486286096",
        "aphelion_distance": "3.568293389267325",
        "perihelion_time": "2457955.716171546472",
        "mean_anomaly": "7.114619713337243",
        "mean_motion": ".2759334102055643",
        "equinox": "J2000",
        "orbit_class": {
            "orbit_class_type": "AMO",
            "orbit_class_description": "Near-Earth asteroid orbits similar to that of 1221 Amor",
            "orbit_class_range": "1.017 AU < q (perihelion) < 1.3 AU"
        }
    },
    "is_sentry_object": false
}